GSAT0101 (GALILEO-PFM)  
1 37846U 11060A   21001.80445834 -.00000049  00000-0  00000+0 0  9999
2 37846  56.7474  35.8400 0003300 309.9604  50.0771  1.70475219 57288
GSAT0102 (GALILEO-FM2)  
1 37847U 11060B   20365.38445206 -.00000051  00000-0  00000-0 0  9992
2 37847  56.7467  35.9059 0005139 297.3420  63.6536  1.70475479 57120
GSAT0103 (GALILEO-FM3)  
1 38857U 12055A   21002.43262438  .00000065  00000-0  00000-0 0  9992
2 38857  55.0137 156.3049 0001497 233.3139 126.6311  1.70473623 51208
GSAT0104 (GALILEO-FM4)  
1 38858U 12055B   21002.36703899  .00000065  00000-0  00000-0 0  9996
2 38858  55.0133 156.3061 0000501 183.9280 176.0302  1.70473543 51201
GSAT0201 (GALILEO 5)    
1 40128U 14050A   21002.83206483 -.00000074  00000-0  00000+0 0  9995
2 40128  50.5307 353.4227 1652997 105.8845 272.9488  1.85519375 43318
GSAT0202 (GALILEO 6)    
1 40129U 14050B   20366.93906601 -.00000078  00000-0  00000-0 0  9993
2 40129  50.5648 352.5417 1650628 106.6382 272.1312  1.85520092 43509
GSAT0203 (GALILEO 7)    
1 40544U 15017A   21002.17219039 -.00000050  00000-0  00000-0 0  9994
2 40544  56.5416  35.9362 0005502 255.8405 104.1635  1.70474937 35241
GSAT0204 (GALILEO 8)    
1 40545U 15017B   21003.12628263 -.00000051  00000-0  00000+0 0  9994
2 40545  56.5490  35.9266 0003537 234.7170 125.3120  1.70475875 35929
GSAT0205 (GALILEO 9)    
1 40889U 15045A   21002.19518482  .00000008  00000-0  00000-0 0  9995
2 40889  55.9977 276.6276 0005559   6.0738 354.0003  1.70474523 33056
GSAT0206 (GALILEO 10)   
1 40890U 15045B   21003.00128761  .00000006  00000-0  00000+0 0  9992
2 40890  55.9975 276.6018 0003961 356.3124   3.7514  1.70474622 33094
GSAT0209 (GALILEO 12)   
1 41174U 15079A   21002.58823149  .00000065  00000-0  00000+0 0  9994
2 41174  55.0284 156.0000 0002584 335.2215  24.7250  1.70473433 31405
GSAT0208 (GALILEO 11)   
1 41175U 15079B   21003.39453956  .00000067  00000-0  00000+0 0  9992
2 41175  55.0281 155.9769 0001983 348.0994  11.8576  1.70473477 31429
GSAT0211 (GALILEO 14)   
1 41549U 16030A   21002.34279303  .00000008  00000-0  00000-0 0  9997
2 41549  56.1413 276.4969 0004744 331.6078  28.4340  1.70474302 28712
GSAT0210 (GALILEO 13)   
1 41550U 16030B   20366.28931800  .00000006  00000-0  00000-0 0  9999
2 41550  56.1418 276.5550 0003598 308.5038  51.5266  1.70474369 28673
GSAT0207 (GALILEO 15)   
1 41859U 16069A   21001.12122545  .00000064  00000-0  00000-0 0  9995
2 41859  54.6871 156.3537 0002067 313.3812  46.5581  1.70473406 25587
GSAT0212 (GALILEO 16)   
1 41860U 16069B   20366.97467427  .00000064  00000-0  00000-0 0  9994
2 41860  54.6845 156.3562 0002072   8.1907 351.7692  1.70473397 25671
GSAT0213 (GALILEO 17)   
1 41861U 16069C   21002.51354585  .00000065  00000-0  00000-0 0  9994
2 41861  54.6871 156.3178 0001427 257.7518 102.1912  1.70473443 25706
GSAT0214 (GALILEO 18)   
1 41862U 16069D   21002.66061909  .00000065  00000-0  00000-0 0  9996
2 41862  54.6855 156.3090 0000576 266.8254  93.1273  1.70473503 25698
GSAT0215 (GALILEO 19)   
1 43055U 17079A   20366.80468180  .00000008  00000-0  00000+0 0  9990
2 43055  56.1174 276.3799 0002899 309.3569  50.6826  1.70473576 19006
GSAT0216 (GALILEO 20)   
1 43056U 17079B   21002.27047864  .00000009  00000-0  00000+0 0  9993
2 43056  56.1165 276.3392 0004564 296.6309  63.3903  1.70473670 19010
GSAT0217 (GALILEO 21)   
1 43057U 17079C   21003.07716428  .00000006  00000-0  00000+0 0  9999
2 43057  56.1132 276.3175 0004423 311.2241  48.8049  1.70473555 19041
GSAT0218 (GALILEO 22)   
1 43058U 17079D   21002.12398681  .00000009  00000-0  00000-0 0  9996
2 43058  56.1148 276.3410 0004843 291.2496  68.7666  1.70473628 19054
GSAT0221 (GALILEO 25)   
1 43564U 18060A   21003.19585717 -.00000050  00000-0  00000+0 0  9991
2 43564  56.9281  35.5872 0006118 269.8471  90.1446  1.70476009 15237
GSAT0222 (GALILEO 26)   
1 43565U 18060B   21002.24254079 -.00000049  00000-0  00000-0 0  9990
2 43565  56.9297  35.6129 0005750 275.4951  84.5043  1.70476055 15251
GSAT0219 (GALILEO 23)   
1 43566U 18060C   21001.28979879 -.00000048  00000-0  00000-0 0  9995
2 43566  56.9297  35.6407 0005495 270.9146  89.0904  1.70475938 15214
GSAT0220 (GALILEO 24)   
1 43567U 18060D   21002.68283753 -.00000049  00000-0  00000-0 0  9991
2 43567  56.9303  35.6035 0005672 272.7216  87.2770  1.70475885 15228
